NORAD_CAT_ID,OBJECT_NAME,OBJECT_TYPE,EPOCH,MEAN_MOTION,ECCENTRICITY,INCLINATION,RA_OF_ASC_NODE,ARG_OF_PERICENTER,MEAN_ANOMALY,BSTAR,MEAN_MOTION_DOT,MEAN_MOTION_DDOT,TLE_LINE0,TLE_LINE1,TLE_LINE2,SEMIMAJOR_AXIS,PERIOD,APOGEE,PERIGEE,DECAYED
55435.0,STARLINK-5626,PAYLOAD,2023-04-02 13:18:57,14.99142779,0.0003061,69.9969,287.6779,268.3184,91.7625,5.4959e-05,5.76e-06,0.0,0 STARLINK-5626,1 55435U 23014AW  23092.55483111  .00000576  00000-0  54959-4 0  9990,2 55435  69.9969 287.6779 0003061 268.3184  91.7625 14.99142779  9530,6947.681,96.055,571.672,567.419,0.0
55435.0,STARLINK-5626,PAYLOAD,2023-04-02 21:19:21,14.99144776,0.0003055,69.9972,286.8356,268.0245,92.0564,7.2655e-05,7.92e-06,0.0,0 STARLINK-5626,1 55435U 23014AW  23092.88844826  .00000792  00000-0  72655-4 0  9993,2 55435  69.9972 286.8356 0003055 268.0245  92.0564 14.99144776 10520,6947.674,96.055,571.662,567.417,0.0
55435.0,STARLINK-5626,PAYLOAD,2023-04-03 00:31:31,14.99145863,0.0003099,69.9971,286.4983,269.0687,91.0118,7.7785e-05,8.54e-06,0.0,0 STARLINK-5626,1 55435U 23014AW  23093.02189492  .00000854  00000-0  77785-4 0  9999,2 55435  69.9971 286.4983 0003099 269.0687  91.0118 14.99145863 10544,6947.671,96.055,571.689,567.383,0.0
55435.0,STARLINK-5626,PAYLOAD,2023-04-03 19:44:31,14.99171531,0.0003013,69.9971,284.4761,277.4296,82.6521,-0.0006351,-7.83e-05,0.0,0 STARLINK-5626,1 55435U 23014AW  23093.82258592 -.00007830  00000-0 -63510-3 0  9998,2 55435  69.9971 284.4761 0003013 277.4296  82.6521 14.99171531  9724,6947.592,96.053,571.55,567.363,0.0
55435.0,STARLINK-5626,PAYLOAD,2023-04-03 21:20:36,14.9913388,0.0003099,69.997,284.3075,270.4923,89.5881,9.814e-08,-9.3e-07,0.0,0 STARLINK-5626,1 55435U 23014AW  23093.88931649 -.00000093  00000-0  98140-7 0  9999,2 55435  69.9970 284.3075 0003099 270.4923  89.5881 14.99133880 10670,6947.708,96.055,571.726,567.42,0.0
55435.0,STARLINK-5626,PAYLOAD,2023-04-04 11:45:21,14.99140939,0.0003148,69.9969,282.7914,268.4195,91.6604,-6.1382e-06,-1.69e-06,0.0,0 STARLINK-5626,1 55435U 23014AW  23094.48982756 -.00000169  00000-0 -61382-5 0  9992,2 55435  69.9969 282.7914 0003148 268.4195  91.6604 14.99140939  9820,6947.686,96.055,571.738,567.364,0.0
55435.0,STARLINK-5626,PAYLOAD,2023-04-04 21:21:49,14.99173653,0.0003245,69.9974,281.7804,269.9759,90.1029,-0.00049938,-6.179e-05,0.0,0 STARLINK-5626,1 55435U 23014AW  23094.89016189 -.00006179  00000-0 -49938-3 0  9993,2 55435  69.9974 281.7804 0003245 269.9759  90.1029 14.99173653 10829,6947.585,96.053,571.705,567.196,0.0
55435.0,STARLINK-5626,PAYLOAD,2023-04-05 13:22:40,14.99130982,0.000294,69.9962,280.0949,269.953,90.1293,0.00011467,1.303e-05,0.0,0 STARLINK-5626,1 55435U 23014AW  23095.55741082  .00001303  00000-0  11467-3 0  9992,2 55435  69.9962 280.0949 0002940 269.9530  90.1293 14.99130982  9982,6947.717,96.056,571.625,567.539,0.0
55435.0,STARLINK-5626,PAYLOAD,2023-04-05 19:47:00,14.99136553,0.0003092,69.9977,279.422,268.9137,91.1669,2.7267e-07,-9e-07,0.0,0 STARLINK-5626,1 55435U 23014AW  23095.82430833 -.00000090  00000-0  27267-6 0  9992,2 55435  69.9977 279.4220 0003092 268.9137  91.1669 14.99136553 10961,6947.7,96.055,571.713,567.417,0.0
55435.0,STARLINK-5626,PAYLOAD,2023-04-05 21:23:05,14.99136947,0.0003086,69.9977,279.2535,269.2036,90.877,4.7808e-06,-3.6e-07,0.0,0 STARLINK-5626,1 55435U 23014AW  23095.89103201 -.00000036  00000-0  47808-5 0  9997,2 55435  69.9977 279.2535 0003086 269.2036  90.8770 14.99136947 10970,6947.699,96.055,571.708,567.42,0.0
55435.0,STARLINK-5626,PAYLOAD,2023-04-06 19:49:02,14.98674839,0.0002812,69.998,276.897,270.2037,89.88,-0.0044408,-0.00053152,0.0,0 STARLINK-5626,1 55435U 23014AW  23096.82572084 -.00053152  00000-0 -44408-2 0  9998,2 55435  69.9980 276.8970 0002812 270.2037  89.8800 14.98674839 10179,6949.127,96.085,572.946,569.038,0.0
55435.0,STARLINK-5626,PAYLOAD,2023-04-07 05:25:44,14.98637594,0.0002854,69.9978,275.8864,273.2169,86.8663,-0.0042968,-0.00051395,0.0,0 STARLINK-5626,1 55435U 23014AW  23097.22620511 -.00051395  00000-0 -42968-2 0  9998,2 55435  69.9978 275.8864 0002854 273.2169  86.8663 14.98637594 10230,6949.242,96.087,573.09,569.124,0.0
55435.0,STARLINK-5626,PAYLOAD,2023-04-07 11:50:12,14.98616342,0.0002731,69.9978,275.2129,269.8042,90.2804,-0.0041751,-0.00049924,0.0,0 STARLINK-5626,1 55435U 23014AW  23097.49319859 -.00049924  00000-0 -41751-2 0  9991,2 55435  69.9978 275.2129 0002731 269.8042  90.2804 14.98616342 11216,6949.308,96.089,573.07,569.275,0.0
55435.0,STARLINK-5626,PAYLOAD,2023-04-08 11:52:07,14.98324057,0.0002444,69.9976,272.6876,274.0295,86.0585,-1.2415e-05,-2.41e-06,0.0,0 STARLINK-5626,1 55435U 23014AW  23098.49453463 -.00000241  00000-0 -12415-4 0  9998,2 55435  69.9976 272.6876 0002444 274.0295  86.0585 14.98324057 10423,6950.211,96.107,573.775,570.378,0.0
55435.0,STARLINK-5626,PAYLOAD,2023-04-09 14:00:01,14.98360747,0.0002619,70.0005,269.9413,268.928,202.512,-0.0034152,-0.00040639,0.0,0 STARLINK-5626,1 55435U 23014AW  23099.58334491 -.00040639  00000-0 -34152-2 0  9993,2 55435  70.0005 269.9413 0002619 268.9280 202.5120 14.98360747 10599,6950.098,96.105,573.783,570.143,0.0
55435.0,STARLINK-5626,PAYLOAD,2023-04-09 18:18:40,14.98332483,0.0002252,69.9991,269.4895,273.4057,86.6845,1.2893e-05,6.1e-07,0.0,0 STARLINK-5626,1 55435U 23014AW  23099.76297056  .00000061  00000-0  12893-4 0  9991,2 55435  69.9991 269.4895 0002252 273.4057  86.6845 14.98332483 11553,6950.185,96.107,573.615,570.485,0.0
55435.0,STARLINK-5626,PAYLOAD,2023-04-10 03:55:28,14.98339596,0.0002186,69.9989,268.4799,271.1681,88.9227,-0.00016161,-2.021e-05,0.0,0 STARLINK-5626,1 55435U 23014AW  23100.16352961 -.00002021  00000-0 -16161-3 0  9996,2 55435  69.9989 268.4799 0002186 271.1681  88.9227 14.98339596 10679,6950.163,96.106,573.548,570.509,0.0
55435.0,STARLINK-5626,PAYLOAD,2023-04-10 13:32:17,14.98363079,0.0002295,69.9986,267.4697,277.3025,82.7874,-0.0004508,-5.472e-05,0.0,0 STARLINK-5626,1 55435U 23014AW  23100.56408631 -.00005472  00000-0 -45080-3 0  9991,2 55435  69.9986 267.4697 0002295 277.3025  82.7874 14.98363079 11677,6950.091,96.105,573.551,570.361,0.0
55435.0,STARLINK-5626,PAYLOAD,2023-04-11 10:22:02,14.98327494,0.0002335,69.9983,265.281,271.6562,88.433,-8.8676e-06,-1.99e-06,0.0,0 STARLINK-5626,1 55435U 23014AW  23101.43197246 -.00000199  00000-0 -88676-5 0  9996,2 55435  69.9983 265.2810 0002335 271.6562  88.4330 14.98327494 10866,6950.201,96.107,573.689,570.443,0.0
55435.0,STARLINK-5626,PAYLOAD,2023-04-11 11:58:10,14.98330225,0.0002521,69.9974,265.1122,275.3039,84.7832,-4.4669e-05,-6.26e-06,0.0,0 STARLINK-5626,1 55435U 23014AW  23101.49873198 -.00000626  00000-0 -44669-4 0  9997,2 55435  69.9974 265.1122 0002521 275.3039  84.7832 14.98330225 11816,6950.192,96.107,573.809,570.305,0.0
55435.0,STARLINK-5626,PAYLOAD,2023-04-12 12:00:11,14.98329197,0.0002493,69.9979,262.5879,271.7153,88.3721,-1.5766e-05,-2.81e-06,0.0,0 STARLINK-5626,1 55435U 23014AW  23102.50013036 -.00000281  00000-0 -15766-4 0  9990,2 55435  69.9979 262.5879 0002493 271.7153  88.3721 14.98329197 11965,6950.195,96.107,573.793,570.328,0.0
55435.0,STARLINK-5626,PAYLOAD,2023-04-13 10:26:04,14.9832402,0.000271,69.9978,260.2314,273.1684,86.9165,-1.6343e-05,-2.88e-06,0.0,0 STARLINK-5626,1 55435U 23014AW  23103.43477246 -.00000288  00000-0 -16343-4 0  9999,2 55435  69.9978 260.2314 0002710 273.1684  86.9165 14.98324020 12103,6950.211,96.107,573.96,570.193,0.0
55435.0,STARLINK-5626,PAYLOAD,2023-04-14 12:04:13,14.98327224,0.0002676,69.9985,257.5376,273.5324,86.5529,2.0659e-05,1.54e-06,0.0,0 STARLINK-5626,1 55435U 23014AW  23104.50292967  .00000154  00000-0  20659-4 0  9998,2 55435  69.9985 257.5376 0002676 273.5324  86.5529 14.98327224 12260,6950.201,96.107,573.926,570.207,0.0
55435.0,STARLINK-5626,PAYLOAD,2023-04-15 13:42:21,14.98333083,0.0002847,70.0007,254.8467,269.4771,90.6062,0.00016652,1.895e-05,0.0,0 STARLINK-5626,1 55435U 23014AW  23105.57107883  .00001895  00000-0  16652-3 0  9998,2 55435  70.0007 254.8467 0002847 269.4771  90.6062 14.98333083 12425,6950.183,96.107,574.027,570.07,0.0
55435.0,STARLINK-5626,PAYLOAD,2023-04-15 20:06:52,14.98349228,0.0002472,70.0005,254.1729,268.8324,91.2552,0.00018097,2.068e-05,0.0,0 STARLINK-5626,1 55435U 23014AW  23105.83810607  .00002068  00000-0  18097-3 0  9990,2 55435  70.0005 254.1729 0002472 268.8324  91.2552 14.98349228 11527,6950.133,96.106,573.717,570.28,0.0
55435.0,STARLINK-5626,PAYLOAD,2023-04-16 12:08:14,14.98321689,0.0002719,69.9992,252.488,265.1951,94.8898,-0.00011548,-1.47e-05,0.0,0 STARLINK-5626,1 55435U 23014AW  23106.50572883 -.00001470  00000-0 -11548-3 0  9998,2 55435  69.9992 252.4880 0002719 265.1951  94.8898 14.98321689 11622,6950.219,96.108,573.973,570.194,0.0
55435.0,STARLINK-5626,PAYLOAD,2023-04-16 13:44:23,14.98322018,0.0002681,69.9994,252.3196,264.7939,95.2914,-0.00011467,-1.461e-05,0.0,0 STARLINK-5626,1 55435U 23014AW  23106.57248885 -.00001461  00000-0 -11467-3 0  9997,2 55435  69.9994 252.3196 0002681 264.7939  95.2914 14.98322018 12578,6950.218,96.108,573.946,570.219,0.0
55435.0,STARLINK-5626,PAYLOAD,2023-04-16 20:08:55,14.98321658,0.0002452,70.0008,251.6476,262.8303,97.2578,-7.2941e-05,-9.63e-06,0.0,0 STARLINK-5626,1 55435U 23014AW  23106.83952907 -.00000963  00000-0 -72941-4 0  9994,2 55435  70.0008 251.6476 0002452 262.8303  97.2578 14.98321658 12612,6950.219,96.108,573.788,570.379,0.0
55435.0,STARLINK-5626,PAYLOAD,2023-04-17 12:10:15,14.98334801,0.0002319,70.0005,249.964,259.9479,100.1418,-0.00013308,-1.681e-05,0.0,0 STARLINK-5626,1 55435U 23014AW  23107.50712348 -.00001681  00000-0 -13308-3 0  9991,2 55435  70.0005 249.9640 0002319 259.9479 100.1418 14.98334801 11772,6950.178,96.107,573.655,570.431,0.0
55435.0,STARLINK-5626,PAYLOAD,2023-04-17 13:46:23,14.98334188,0.0002331,70.0005,249.7957,261.1632,98.9263,-0.00013048,-1.65e-05,0.0,0 STARLINK-5626,1 55435U 23014AW  23107.57388367 -.00001650  00000-0 -13048-3 0  9995,2 55435  70.0005 249.7957 0002331 261.1632  98.9263 14.98334188 12727,6950.18,96.107,573.665,570.425,0.0
